[{"OBJECT_NAME":"STARLINK-34287","OBJECT_ID":"2025-139G","EPOCH":"2026-03-09T10:15:36.317088","MEAN_MOTION":15.30200509,"ECCENTRICITY":0.00015432,"INCLINATION":53.1591,"RA_OF_ASC_NODE":128.2814,"ARG_OF_PERICENTER":80.1154,"MEAN_ANOMALY":280.0021,"EPHEMERIS_TYPE":0,"CLASSIFICATION_TYPE":"U","NORAD_CAT_ID":64670,"ELEMENT_SET_NO":999,"REV_AT_EPOCH":4024,"BSTAR":0.00071519536,"MEAN_MOTION_DOT":0.00020883,"MEAN_MOTION_DDOT":0},{"OBJECT_NAME":"CZ-4B DEB","OBJECT_ID":"2006-015E","EPOCH":"2026-03-09T20:34:53.082912","MEAN_MOTION":15.19885806,"ECCENTRICITY":0.00461993,"INCLINATION":98.0565,"RA_OF_ASC_NODE":201.7753,"ARG_OF_PERICENTER":62.4887,"MEAN_ANOMALY":298.1031,"EPHEMERIS_TYPE":0,"CLASSIFICATION_TYPE":"U","NORAD_CAT_ID":29538,"ELEMENT_SET_NO":999,"REV_AT_EPOCH":5389,"BSTAR":0.0022587151,"MEAN_MOTION_DOT":0.00050103,"MEAN_MOTION_DDOT":0}]
